ONEWEB-0650             
1 55813U 23029T   23328.49849249  .00000074  00000+0  15365-3 0  9998
2 55813  87.9183 131.2103 0001196 105.5382 254.5883 13.19726575 35483
ONEWEB-0652             
1 55814U 23029U   23328.45354785 -.00000129  00000+0 -38207-3 0  9994
2 55814  87.8961 115.9687 0001635  87.1039 273.0278 13.14500694 36432
ONEWEB-0653             
1 55815U 23029V   23328.43769081 -.00000157  00000+0 -45733-3 0  9995
2 55815  87.9045 115.9339 0001547  81.2254 278.9051 13.14502638 36463
ONEWEB-0654             
1 55816U 23029W   23328.43293356 -.00000058  00000+0 -19205-3 0  9998
2 55816  87.8964 115.9631 0001975  85.3481 274.7874 13.14501243 36480
ONEWEB-0656             
1 55817U 23029X   23328.45677662 -.00000025  00000+0 -93125-4 0  9995
2 55817  87.9185 100.6772 0002391 103.3388 256.8012 13.20783042 37633
ONEWEB-0657             
1 55818U 23029Y   23328.49375962  .00000099  00000+0  21530-3 0  9997
2 55818  87.9183 131.2170 0002376 112.1387 247.9998 13.19725516 35490
ONEWEB-0658             
1 55819U 23029Z   23328.48902598  .00000088  00000+0  18737-3 0  9991
2 55819  87.9161 131.1548 0000978 113.2966 246.8270 13.19725191 35508
ONEWEB-0660             
1 55820U 23029AA  23328.48684941  .00000220  00000+0  55867-3 0  9995
2 55820  87.8972 115.9273 0000979  83.5403 276.5838 13.14500065 36473
